      2.10          N: GNSS NAV DATA                        RINEX VERSION / TYPE
fic2rin                                 05/08/2023 00:18:05 PGM / RUN BY / DATE
                                                            END OF HEADER
21 23  5  7  6  0  0.0  .153942033648D-03 -.227373675443D-12  .000000000000D+00
     .560000000000D+02 -.143437500000D+03  .417874549009D-08 -.293720113314D+01
    -.699982047081D-05  .246728721540D-01  .387988984585D-05  .515363172531D+04
     .216000000000D+05  .931322574615D-08  .254339680513D+01  .322237610817D-06
     .961823984470D+00  .299968750000D+03 -.765838012410D+00 -.778889586735D-08
    -.165721188667D-09  .100000000000D+01  .226100000000D+04  .000000000000D+00
     .240000000000D+01  .000000000000D+00 -.102445483208D-07  .560000000000D+02
     .144000000000D+05  .400000000000D+01
13 23  5  7  6  0  0.0  .516389962286D-03  .534328137292D-11  .000000000000D+00
     .680000000000D+02  .331250000000D+01  .491127600293D-08  .299876548772D+01
     .596046447754D-07  .691069220193D-02  .507384538651D-05  .515365571785D+04
     .216000000000D+05 -.335276126862D-07 -.142207638500D+01 -.156462192535D-06
     .969238758422D+00  .285906250000D+03  .911034409223D+00 -.797354641593D-08
     .514307137242D-10  .100000000000D+01  .226100000000D+04  .000000000000D+00
     .240000000000D+01  .000000000000D+00 -.111758708954D-07  .680000000000D+02
     .144000000000D+05  .400000000000D+01
19 23  5  7  6  0  0.0  .313547439873D-03  .511590769747D-11  .000000000000D+00
     .410000000000D+02  .218750000000D+02  .428517849488D-08 -.759200182546D+00
     .120699405670D-05  .936732243281D-02  .681728124619D-06  .515361843681D+04
     .216000000000D+05 -.197440385818D-06  .168820801646D+01 -.633299350739D-07
     .973256440563D+00  .375312500000D+03  .228590685605D+01 -.835034782550D-08
     .160363822654D-09  .100000000000D+01  .226100000000D+04  .000000000000D+00
     .240000000000D+01  .000000000000D+00 -.153668224812D-07  .410000000000D+02
     .144000000000D+05  .400000000000D+01
28 23  5  7  6  0  0.0  .750408507884D-04  .409272615798D-11  .000000000000D+00
     .440000000000D+02 -.105312500000D+02  .465412243431D-08 -.991240867858D+00
    -.527128577232D-06  .753871514462D-03  .877305865288D-05  .515366975784D+04
     .216000000000D+05 -.223517417908D-07 -.547638177911D+00 -.633299350739D-07
     .961687501527D+00  .206593750000D+03  .171180831854D+01 -.792104422900D-08
    -.789675750308D-09  .100000000000D+01  .226100000000D+04  .000000000000D+00
     .240000000000D+01  .000000000000D+00 -.977888703346D-08  .300000000000D+03
     .144000000000D+05  .400000000000D+01
14 23  5  7  6  0  0.0  .485540367663D-04  .126192389871D-10  .000000000000D+00
     .153000000000D+03  .119875000000D+03  .445125684129D-08 -.171168331951D+00
     .601075589657D-05  .306532520335D-02  .916607677937D-05  .515368424034D+04
     .216000000000D+05  .838190317154D-07  .565758811657D+00  .260770320892D-07
     .949314313037D+00  .198218750000D+03 -.303830611824D+01 -.804783522464D-08
    -.146434671020D-09  .100000000000D+01  .226100000000D+04  .000000000000D+00
     .240000000000D+01  .000000000000D+00 -.791624188423D-08  .153000000000D+03
     .144000000000D+05  .400000000000D+01
20 23  5  7  6  0  0.0  .434948597103D-03 -.204636307899D-11  .000000000000D+00
     .850000000000D+02 -.591875000000D+02  .453054585828D-08  .199981775529D+01
    -.313669443130D-05  .420376029797D-02  .114347785711D-04  .515381406212D+04
     .216000000000D+05 -.763684511185D-07 -.277492798972D+01  .409781932831D-07
     .948472134506D+00  .147781250000D+03 -.288038379706D+01 -.789604318761D-08
     .445732852277D-09  .100000000000D+01  .226100000000D+04  .000000000000D+00
     .340000000000D+01  .000000000000D+00 -.838190317154D-08  .850000000000D+02
     .144000000000D+05  .400000000000D+01
29 23  5  7  6  0  0.0 -.598488841206D-03 -.147792889038D-11  .000000000000D+00
     .171000000000D+03  .328437500000D+02  .434946688704D-08 -.276063000334D+01
     .174157321453D-05  .248519645538D-02 -.447034835815D-06  .515377499580D+04
     .216000000000D+05 -.558793544769D-08  .165766855118D+01 -.242143869400D-07
     .976452101721D+00  .397000000000D+03  .236771647834D+01 -.836820571221D-08
     .760745973838D-10  .100000000000D+01  .226100000000D+04  .000000000000D+00
     .240000000000D+01  .000000000000D+00 -.102445483208D-07  .171000000000D+03
     .144000000000D+05  .400000000000D+01
30 23  5  7  6  0  0.0 -.518568325788D-03  .204636307899D-11  .000000000000D+00
     .860000000000D+02 -.146250000000D+02  .525950479377D-08  .443690307037D+00
    -.635161995888D-06  .645031011663D-02  .865198671818D-05  .515359850311D+04
     .216000000000D+05 -.167638063431D-07 -.503644034156D+00  .521540641785D-07
     .935697304783D+00  .194781250000D+03 -.259474898795D+01 -.835391940285D-08
    -.756817238762D-09  .100000000000D+01  .226100000000D+04  .000000000000D+00
     .240000000000D+01  .000000000000D+00  .372529029846D-08  .860000000000D+02
     .144000000000D+05  .400000000000D+01
23 23  5  7  6  0  0.0  .222316011786D-04  .295585778076D-11  .000000000000D+00
     .380000000000D+02 -.559687500000D+02  .405124017899D-08  .303142957087D+00
    -.282377004623D-05  .312995736022D-02  .120420008898D-04  .515365930939D+04
     .216000000000D+05  .745058059692D-08 -.263636965538D+01  .391155481339D-07
     .973737888366D+00  .155281250000D+03 -.308849841183D+01 -.761781731267D-08
     .620025826564D-09  .100000000000D+01  .226100000000D+04  .000000000000D+00
     .240000000000D+01  .000000000000D+00 -.838190317154D-08  .806000000000D+03
     .144000000000D+05  .400000000000D+01
18 23  5  7  6  0  0.0 -.255823135376D-03 -.160298441187D-10  .000000000000D+00
     .224000000000D+03 -.152218750000D+03  .405766901820D-08  .136095948440D+01
    -.789202749729D-05  .314682547469D-02  .590458512306D-05  .515368154144D+04
     .216000000000D+05 -.298023223877D-07  .264773651276D+01  .100582838058D-06
     .973944462639D+00  .273343750000D+03  .312958546672D+01 -.798568977889D-08
    -.225723688012D-09  .100000000000D+01  .226100000000D+04  .000000000000D+00
     .240000000000D+01  .000000000000D+00 -.838190317154D-08  .480000000000D+03
     .144000000000D+05  .400000000000D+01
22 23  5  7  6  0  0.0  .477072317153D-03  .648014975013D-11  .000000000000D+00
     .650000000000D+02  .237500000000D+01  .504521015325D-08 -.308700700781D+01
     .160187482834D-06  .143136351835D-01  .498816370964D-05  .515361455154D+04
     .216000000000D+05  .294297933578D-06 -.147701705320D+01 -.147148966789D-06
     .962088011925D+00  .280656250000D+03 -.180713056549D+01 -.794640242813D-08
     .154292141173D-09  .100000000000D+01  .226100000000D+04  .000000000000D+00
     .240000000000D+01  .630000000000D+02 -.838190317154D-08  .650000000000D+02
     .144000000000D+05  .400000000000D+01
1  23  5  7  5 59 44.0  .187247991562D-03 -.295585778076D-11  .000000000000D+00
     .500000000000D+01 -.126812500000D+03  .379944397638D-08  .119452445461D+01
    -.674463808537D-05  .128228806425D-01  .580772757530D-05  .515364729118D+04
     .215840000000D+05 -.145286321640D-06  .264645496727D+01  .186264514923D-07
     .990063662068D+00  .285375000000D+03  .957445616950D+00 -.797890378194D-08
    -.269654089318D-09  .100000000000D+01  .226100000000D+04  .000000000000D+00
     .240000000000D+01  .000000000000D+00  .465661287308D-08  .500000000000D+01
     .146700000000D+05  .400000000000D+01
